start=new Date('2023-01-27T00:00:00.000Z').valueOf();
sats=[{"SITE":"AFETR","MEAN_MOTION_DDOT":"0.0000000000000","OBJECT_ID":"2019-074Y","CENTER_NAME":"EARTH","EPOCH":"2023-01-26T19:57:25.051680","NORAD_CAT_ID":"44735","LAUNCH_DATE":"2019-11-11","ARG_OF_PERICENTER":"84.0151","PERIOD":"95.592","MEAN_ANOMALY":"276.0996","INCLINATION":"53.0509","FILE":"3762186","TLE_LINE2":"2 44735  53.0509 274.6658 0001390  84.0151 276.0996 15.06410039177134","REF_FRAME":"TEME","ECCENTRICITY":"0.00013900","ELEMENT_SET_NO":"999","APOAPSIS":"548.145","TIME_SYSTEM":"UTC","TLE_LINE1":"1 44735U 19074Y   23026.83153995  .00012037  00000-0  82537-3 0  9991","DECAY_DATE":null,"RA_OF_ASC_NODE":"274.6658","PERIAPSIS":"546.220","BSTAR":"0.00082537000000","EPHEMERIS_TYPE":"0","RCS_SIZE":"LARGE","GP_ID":"223765522","MEAN_ELEMENT_THEORY":"SGP4","MEAN_MOTION_DOT":"0.00012037","MEAN_MOTION":"15.06410039","REV_AT_EPOCH":"17713","SEMIMAJOR_AXIS":"6925.318","COUNTRY_CODE":"US","CLASSIFICATION_TYPE":"U","OBJECT_NAME":"STARLINK-1030","OBJECT_TYPE":"PAYLOAD"},{"OBJECT_TYPE":"PAYLOAD","OBJECT_NAME":"STARLINK-1031","CLASSIFICATION_TYPE":"U","COUNTRY_CODE":"US","SEMIMAJOR_AXIS":"6925.337","REV_AT_EPOCH":"17686","MEAN_MOTION":"15.06403670","MEAN_MOTION_DOT":"0.00002077","MEAN_ELEMENT_THEORY":"SGP4","RCS_SIZE":"LARGE","GP_ID":"223753584","EPHEMERIS_TYPE":"0","BSTAR":"0.00015824000000","DECAY_DATE":null,"RA_OF_ASC_NODE":"277.8792","PERIAPSIS":"546.342","TIME_SYSTEM":"UTC","TLE_LINE1":"1 44736U 19074Z   23026.11646526  .00002077  00000-0  15824-3 0  9998","APOAPSIS":"548.062","ELEMENT_SET_NO":"999","TLE_LINE2":"2 44736  53.0516 277.8792 0001242 100.9166 259.1963 15.06403670176865","REF_FRAME":"TEME","ECCENTRICITY":"0.00012420","INCLINATION":"53.0516","FILE":"3761951","MEAN_ANOMALY":"259.1963","ARG_OF_PERICENTER":"100.9166","PERIOD":"95.592","LAUNCH_DATE":"2019-11-11","NORAD_CAT_ID":"44736","EPOCH":"2023-01-26T02:47:42.598464","OBJECT_ID":"2019-074Z","MEAN_MOTION_DDOT":"0.0000000000000","CENTER_NAME":"EARTH","SITE":"AFETR"},{"CLASSIFICATION_TYPE":"U","COUNTRY_CODE":"US","OBJECT_TYPE":"PAYLOAD","OBJECT_NAME":"STARLINK-1032","MEAN_MOTION":"15.06400396","SEMIMAJOR_AXIS":"6925.347","REV_AT_EPOCH":"17714","GP_ID":"223765523","RCS_SIZE":"LARGE","EPHEMERIS_TYPE":"0","MEAN_MOTION_DOT":"0.00000158","MEAN_ELEMENT_THEORY":"SGP4","TLE_LINE1":"1 44737U 19074AA  23026.85734120  .00000158  00000-0  29512-4 0  9996","TIME_SYSTEM":"UTC","APOAPSIS":"548.077","BSTAR":"0.00002951200000","DECAY_DATE":null,"PERIAPSIS":"546.348","RA_OF_ASC_NODE":"274.5492","ELEMENT_SET_NO":"999","MEAN_ANOMALY":"276.8433","PERIOD":"95.592","ARG_OF_PERICENTER":"83.2698","REF_FRAME":"TEME","TLE_LINE2":"2 44737  53.0524 274.5492 0001248  83.2698 276.8433 15.06400396177147","ECCENTRICITY":"0.00012480","FILE":"3762186","INCLINATION":"53.0524","LAUNCH_DATE":"2019-11-11","NORAD_CAT_ID":"44737","SITE":"AFETR","EPOCH":"2023-01-26T20:34:34.279680","CENTER_NAME":"EARTH","MEAN_MOTION_DDOT":"0.0000000000000","OBJECT_ID":"2019-074AA"},{"REF_FRAME":"TEME","TLE_LINE2":"2 44738  53.0516 274.6166 0001507 134.2766 225.8347 15.06374660177130","ECCENTRICITY":"0.00015070","FILE":"3762186","INCLINATION":"53.0516","MEAN_ANOMALY":"225.8347","ARG_OF_PERICENTER":"134.2766","PERIOD":"95.594","ELEMENT_SET_NO":"999","EPOCH":"2023-01-26T20:13:21.464256","CENTER_NAME":"EARTH","OBJECT_ID":"2019-074AB","MEAN_MOTION_DDOT":"0.0000000000000","SITE":"AFETR","LAUNCH_DATE":"2019-11-11","NORAD_CAT_ID":"44738","SEMIMAJOR_AXIS":"6925.426","REV_AT_EPOCH":"17713","MEAN_MOTION":"15.06374660","OBJECT_TYPE":"PAYLOAD","OBJECT_NAME":"STARLINK-1033","COUNTRY_CODE":"US","CLASSIFICATION_TYPE":"U","BSTAR":"-0.00016890000000","DECAY_DATE":null,"PERIAPSIS":"546.248","RA_OF_ASC_NODE":"274.6166","TLE_LINE1":"1 44738U 19074AB  23026.84260954 -.00002795  00000-0 -16890-3 0  9990","TIME_SYSTEM":"UTC","APOAPSIS":"548.335","MEAN_MOTION_DOT":"-0.00002795","MEAN_ELEMENT_THEORY":"SGP4","GP_ID":"223765874","RCS_SIZE":"LARGE","EPHEMERIS_TYPE":"0"},{"COUNTRY_CODE":"US","CLASSIFICATION_TYPE":"U","OBJECT_TYPE":"PAYLOAD","OBJECT_NAME":"STARLINK-1034","MEAN_MOTION":"15.28228291","SEMIMAJOR_AXIS":"6859.246","REV_AT_EPOCH":"17753","GP_ID":"223765967","RCS_SIZE":"LARGE","EPHEMERIS_TYPE":"0","MEAN_MOTION_DOT":"0.00026945","MEAN_ELEMENT_THEORY":"SGP4","TIME_SYSTEM":"UTC","TLE_LINE1":"1 44739U 19074AC  23026.88195067  .00026945  00000-0  97559-3 0  9999","APOAPSIS":"482.323","BSTAR":"0.00097559000000","DECAY_DATE":null,"PERIAPSIS":"479.898","RA_OF_ASC_NODE":"241.5481","ELEMENT_SET_NO":"999","MEAN_ANOMALY":"166.0907","ARG_OF_PERICENTER":"194.0041","PERIOD":"94.227","ECCENTRICITY":"0.00017680","TLE_LINE2":"2 44739  52.9644 241.5481 0001768 194.0041 166.0907 15.28228291177537","REF_FRAME":"TEME","INCLINATION":"52.9644","FILE":"3762196","LAUNCH_DATE":"2019-11-11","NORAD_CAT_ID":"44739","SITE":"AFETR","EPOCH":"2023-01-26T21:10:00.537888","MEAN_MOTION_DDOT":"0.0000000000000","OBJECT_ID":"2019-074AC","CENTER_NAME":"EARTH"},{"NORAD_CAT_ID":"44740","LAUNCH_DATE":"2019-11-11","SITE":"AFETR","CENTER_NAME":"EARTH","MEAN_MOTION_DDOT":"0.0000000000000","OBJECT_ID":"2019-074AD","EPOCH":"2023-01-26T20:29:15.887904","ELEMENT_SET_NO":"999","PERIOD":"95.592","ARG_OF_PERICENTER":"102.8210","MEAN_ANOMALY":"257.2924","INCLINATION":"53.0517","FILE":"3762196","REF_FRAME":"TEME","TLE_LINE2":"2 44740  53.0517 274.5697 0001299 102.8210 257.2924 15.06398812177141","ECCENTRICITY":"0.00012990","EPHEMERIS_TYPE":"0","RCS_SIZE":"LARGE","GP_ID":"223766043","MEAN_ELEMENT_THEORY":"SGP4","MEAN_MOTION_DOT":"0.00000573","APOAPSIS":"548.117","TLE_LINE1":"1 44740U 19074AD  23026.85365611  .00000573  00000-0  57355-4 0  9992","TIME_SYSTEM":"UTC","RA_OF_ASC_NODE":"274.5697","DECAY_DATE":null,"PERIAPSIS":"546.318","BSTAR":"0.00005735500000","CLASSIFICATION_TYPE":"U","COUNTRY_CODE":"US","OBJECT_NAME":"STARLINK-1035","OBJECT_TYPE":"PAYLOAD","MEAN_MOTION":"15.06398812","REV_AT_EPOCH":"17714","SEMIMAJOR_AXIS":"6925.352"},{"TIME_SYSTEM":"UTC","TLE_LINE1":"1 44741U 19074AE  23026.13489335 -.00004084  00000-0 -25550-3 0  9998","APOAPSIS":"547.976","BSTAR":"-0.00025550000000","DECAY_DATE":null,"RA_OF_ASC_NODE":"277.7939","PERIAPSIS":"546.518","RCS_SIZE":"LARGE","GP_ID":"223754311","EPHEMERIS_TYPE":"0","MEAN_MOTION_DOT":"-0.00004084","MEAN_ELEMENT_THEORY":"SGP4","MEAN_MOTION":"15.06389070","SEMIMAJOR_AXIS":"6925.382","REV_AT_EPOCH":"17686","COUNTRY_CODE":"US","CLASSIFICATION_TYPE":"U","OBJECT_TYPE":"PAYLOAD","OBJECT_NAME":"STARLINK-1036","SITE":"AFETR","EPOCH":"2023-01-26T03:14:14.785440","OBJECT_ID":"2019-074AE","MEAN_MOTION_DDOT":"0.0000000000000","CENTER_NAME":"EARTH","LAUNCH_DATE":"2019-11-11","NORAD_CAT_ID":"44741","MEAN_ANOMALY":"254.2170","PERIOD":"95.593","ARG_OF_PERICENTER":"105.8935","REF_FRAME":"TEME","TLE_LINE2":"2 44741  53.0518 277.7939 0001053 105.8935 254.2170 15.06389070176866","ECCENTRICITY":"0.00010530","FILE":"3761951","INCLINATION":"53.0518","ELEMENT_SET_NO":"999"},{"OBJECT_NAME":"STARLINK-1037","OBJECT_TYPE":"PAYLOAD","CLASSIFICATION_TYPE":"U","COUNTRY_CODE":"US","REV_AT_EPOCH":"17766","SEMIMAJOR_AXIS":"6850.135","MEAN_MOTION":"15.31277950","MEAN_ELEMENT_THEORY":"SGP4","MEAN_MOTION_DOT":"0.00091161","EPHEMERIS_TYPE":"0","RCS_SIZE":"LARGE","GP_ID":"223765979","RA_OF_ASC_NODE":"233.2164","DECAY_DATE":null,"PERIAPSIS":"470.812","BSTAR":"0.00295180000000","APOAPSIS":"473.189","TIME_SYSTEM":"UTC","TLE_LINE1":"1 44742U 19074AF  23026.86395592  .00091161  00000-0  29518-2 0  9997","ELEMENT_SET_NO":"999","FILE":"3762197","INCLINATION":"52.9710","ECCENTRICITY":"0.00017350","TLE_LINE2":"2 44742  52.9710 233.2164 0001735 123.1395 236.9770 15.31277950177669","REF_FRAME":"TEME","PERIOD":"94.039","ARG_OF_PERICENTER":"123.1395","MEAN_ANOMALY":"236.9770","NORAD_CAT_ID":"44742","LAUNCH_DATE":"2019-11-11","OBJECT_ID":"2019-074AF","MEAN_MOTION_DDOT":"0.0000000000000","CENTER_NAME":"EARTH","EPOCH":"2023-01-26T20:44:05.791488","SITE":"AFETR"},{"ELEMENT_SET_NO":"999","MEAN_ANOMALY":"269.7022","PERIOD":"95.592","ARG_OF_PERICENTER":"90.4093","TLE_LINE2":"2 44743  53.0532 297.8693 0001097  90.4093 269.7022 15.06399086176670","REF_FRAME":"TEME","ECCENTRICITY":"0.00010970","INCLINATION":"53.0532","FILE":"3761951","LAUNCH_DATE":"2019-11-11","NORAD_CAT_ID":"44743","SITE":"AFETR","EPOCH":"2023-01-26T02:50:22.079904","CENTER_NAME":"EARTH","MEAN_MOTION_DDOT":"0.0000000000000","OBJECT_ID":"2019-074AG","CLASSIFICATION_TYPE":"U","COUNTRY_CODE":"US","OBJECT_TYPE":"PAYLOAD","OBJECT_NAME":"STARLINK-1038","MEAN_MOTION":"15.06399086","SEMIMAJOR_AXIS":"6925.351","REV_AT_EPOCH":"17667","RCS_SIZE":"LARGE","GP_ID":"223752833","EPHEMERIS_TYPE":"0","MEAN_MOTION_DOT":"0.00003804","MEAN_ELEMENT_THEORY":"SGP4","TLE_LINE1":"1 44743U 19074AG  23026.11831111  .00003804  00000-0  27414-3 0  9999","TIME_SYSTEM":"UTC","APOAPSIS":"547.976","BSTAR":"0.00027414000000","PERIAPSIS":"546.457","DECAY_DATE":null,"RA_OF_ASC_NODE":"297.8693"},{"TLE_LINE1":"1 44744U 19074AH  23026.12936823  .00005422  00000-0  38255-3 0  9990","TIME_SYSTEM":"UTC","APOAPSIS":"548.092","BSTAR":"0.00038255000000","PERIAPSIS":"546.284","DECAY_DATE":null,"RA_OF_ASC_NODE":"297.8219","GP_ID":"223753585","RCS_SIZE":"LARGE","EPHEMERIS_TYPE":"0","MEAN_MOTION_DOT":"0.00005422","MEAN_ELEMENT_THEORY":"SGP4","MEAN_MOTION":"15.06408334","SEMIMAJOR_AXIS":"6925.323","REV_AT_EPOCH":"17658","COUNTRY_CODE":"US","CLASSIFICATION_TYPE":"U","OBJECT_TYPE":"PAYLOAD","OBJECT_NAME":"STARLINK-1039","SITE":"AFETR","EPOCH":"2023-01-26T03:06:17.415072","CENTER_NAME":"EARTH","OBJECT_ID":"2019-074AH","MEAN_MOTION_DDOT":"0.0000000000000","LAUNCH_DATE":"2019-11-11","NORAD_CAT_ID":"44744","MEAN_ANOMALY":"263.2585","PERIOD":"95.592","ARG_OF_PERICENTER":"96.8552","ECCENTRICITY":"0.00013060","TLE_LINE2":"2 44744  53.0525 297.8219 0001306  96.8552 263.2585 15.06408334176580","REF_FRAME":"TEME","INCLINATION":"53.0525","FILE":"3761951","ELEMENT_SET_NO":"999"}];
